0 FENGYUN 1C DEB
1 37462U 99025EJG 13287.68243515  .00017747  00000-0  21267-2 0   359
2 37462 098.8946 084.9615 0254594 141.9343 221.0430 14.63659263262552
0 FENGYUN 1C DEB
1 37462U 99025EJG 13292.26232370  .00017931  00000-0  21521-2 0   365
2 37462 098.9037 089.9048 0252970 127.7288 234.7653 14.63825291263224
